[{"OBJECT_NAME":"STARLINK-30292","OBJECT_ID":"2023-141E","EPOCH":"2025-10-23T11:08:53.604384","MEAN_MOTION":15.30166269,"ECCENTRICITY":0.0001146,"INCLINATION":53.161,"RA_OF_ASC_NODE":201.1438,"ARG_OF_PERICENTER":79.4196,"MEAN_ANOMALY":280.6934,"EPHEMERIS_TYPE":0,"CLASSIFICATION_TYPE":"U","NORAD_CAT_ID":57844,"ELEMENT_SET_NO":999,"REV_AT_EPOCH":11932,"BSTAR":-0.00010298,"MEAN_MOTION_DOT":-3.404e-5,"MEAN_MOTION_DDOT":0},{"OBJECT_NAME":"STARLINK-30416","OBJECT_ID":"2023-141H","EPOCH":"2025-10-23T10:38:37.542048","MEAN_MOTION":15.30207487,"ECCENTRICITY":0.0001085,"INCLINATION":53.1603,"RA_OF_ASC_NODE":201.6747,"ARG_OF_PERICENTER":66.0273,"MEAN_ANOMALY":294.0841,"EPHEMERIS_TYPE":0,"CLASSIFICATION_TYPE":"U","NORAD_CAT_ID":57847,"ELEMENT_SET_NO":999,"REV_AT_EPOCH":11931,"BSTAR":9.6826e-5,"MEAN_MOTION_DOT":2.51e-5,"MEAN_MOTION_DDOT":0},{"OBJECT_NAME":"STARLINK-30426","OBJECT_ID":"2023-141J","EPOCH":"2025-10-23T11:02:55.021920","MEAN_MOTION":15.30180407,"ECCENTRICITY":0.0001286,"INCLINATION":53.1618,"RA_OF_ASC_NODE":201.5769,"ARG_OF_PERICENTER":79.2833,"MEAN_ANOMALY":280.8313,"EPHEMERIS_TYPE":0,"CLASSIFICATION_TYPE":"U","NORAD_CAT_ID":57848,"ELEMENT_SET_NO":999,"REV_AT_EPOCH":11931,"BSTAR":3.1932e-5,"MEAN_MOTION_DOT":5.86e-6,"MEAN_MOTION_DDOT":0},{"OBJECT_NAME":"STARLINK-30430","OBJECT_ID":"2023-141K","EPOCH":"2025-10-23T10:34:04.533600","MEAN_MOTION":15.30207278,"ECCENTRICITY":0.0001003,"INCLINATION":53.1588,"RA_OF_ASC_NODE":201.6975,"ARG_OF_PERICENTER":144.4874,"MEAN_ANOMALY":215.6194,"EPHEMERIS_TYPE":0,"CLASSIFICATION_TYPE":"U","NORAD_CAT_ID":57849,"ELEMENT_SET_NO":999,"REV_AT_EPOCH":11931,"BSTAR":-2.3079e-5,"MEAN_MOTION_DOT":-1.043e-5,"MEAN_MOTION_DDOT":0},{"OBJECT_NAME":"STARLINK-30425","OBJECT_ID":"2023-141L","EPOCH":"2025-10-23T11:07:27.328800","MEAN_MOTION":15.30196648,"ECCENTRICITY":0.000138,"INCLINATION":53.161,"RA_OF_ASC_NODE":201.602,"ARG_OF_PERICENTER":87.6463,"MEAN_ANOMALY":272.4696,"EPHEMERIS_TYPE":0,"CLASSIFICATION_TYPE":"U","NORAD_CAT_ID":57850,"ELEMENT_SET_NO":999,"REV_AT_EPOCH":11931,"BSTAR":0.00010687,"MEAN_MOTION_DOT":2.807e-5,"MEAN_MOTION_DDOT":0},{"OBJECT_NAME":"STARLINK-30405","OBJECT_ID":"2023-141M","EPOCH":"2025-10-23T04:26:58.754400","MEAN_MOTION":15.30201147,"ECCENTRICITY":8.353e-5,"INCLINATION":53.1596,"RA_OF_ASC_NODE":202.8943,"ARG_OF_PERICENTER":103.687,"MEAN_ANOMALY":256.4224,"EPHEMERIS_TYPE":0,"CLASSIFICATION_TYPE":"U","NORAD_CAT_ID":57851,"ELEMENT_SET_NO":999,"REV_AT_EPOCH":11927,"BSTAR":-3.6820948e-5,"MEAN_MOTION_DOT":-1.449e-5,"MEAN_MOTION_DDOT":0},{"OBJECT_NAME":"STARLINK-30431","OBJECT_ID":"2023-141N","EPOCH":"2025-10-23T11:16:28.458048","MEAN_MOTION":15.30179936,"ECCENTRICITY":0.0001374,"INCLINATION":53.1611,"RA_OF_ASC_NODE":201.1725,"ARG_OF_PERICENTER":79.8574,"MEAN_ANOMALY":280.2582,"EPHEMERIS_TYPE":0,"CLASSIFICATION_TYPE":"U","NORAD_CAT_ID":57852,"ELEMENT_SET_NO":999,"REV_AT_EPOCH":11931,"BSTAR":0.00015221,"MEAN_MOTION_DOT":4.149e-5,"MEAN_MOTION_DDOT":0},{"OBJECT_NAME":"STARLINK-30404","OBJECT_ID":"2023-141P","EPOCH":"2025-10-23T00:12:01.698336","MEAN_MOTION":15.30178271,"ECCENTRICITY":0.00014999,"INCLINATION":53.1612,"RA_OF_ASC_NODE":203.2673,"ARG_OF_PERICENTER":95.7613,"MEAN_ANOMALY":264.3559,"EPHEMERIS_TYPE":0,"CLASSIFICATION_TYPE":"U","NORAD_CAT_ID":57853,"ELEMENT_SET_NO":999,"REV_AT_EPOCH":11925,"BSTAR":5.63705e-7,"MEAN_MOTION_DOT":-3.43e-6,"MEAN_MOTION_DDOT":0},{"OBJECT_NAME":"STARLINK-30392","OBJECT_ID":"2023-141R","EPOCH":"2025-10-23T11:21:01.767168","MEAN_MOTION":15.30193919,"ECCENTRICITY":0.0001152,"INCLINATION":53.16,"RA_OF_ASC_NODE":201.1891,"ARG_OF_PERICENTER":70.0198,"MEAN_ANOMALY":290.0927,"EPHEMERIS_TYPE":0,"CLASSIFICATION_TYPE":"U","NORAD_CAT_ID":57855,"ELEMENT_SET_NO":999,"REV_AT_EPOCH":11932,"BSTAR":6.7986e-6,"MEAN_MOTION_DOT":-1.58e-6,"MEAN_MOTION_DDOT":0},{"OBJECT_NAME":"STARLINK-30291","OBJECT_ID":"2023-141S","EPOCH":"2025-10-23T00:56:04.435008","MEAN_MOTION":15.30200841,"ECCENTRICITY":4.362e-5,"INCLINATION":53.1579,"RA_OF_ASC_NODE":203.4537,"ARG_OF_PERICENTER":315.1178,"MEAN_ANOMALY":44.9787,"EPHEMERIS_TYPE":0,"CLASSIFICATION_TYPE":"U","NORAD_CAT_ID":57856,"ELEMENT_SET_NO":999,"REV_AT_EPOCH":11925,"BSTAR":7.2117747e-5,"MEAN_MOTION_DOT":1.778e-5,"MEAN_MOTION_DDOT":0},{"OBJECT_NAME":"STARLINK-30424","OBJECT_ID":"2023-141T","EPOCH":"2025-10-23T15:03:55.088352","MEAN_MOTION":15.30198415,"ECCENTRICITY":0.0001216,"INCLINATION":53.1596,"RA_OF_ASC_NODE":174.7619,"ARG_OF_PERICENTER":76.2349,"MEAN_ANOMALY":283.8787,"EPHEMERIS_TYPE":0,"CLASSIFICATION_TYPE":"U","NORAD_CAT_ID":57857,"ELEMENT_SET_NO":999,"REV_AT_EPOCH":11970,"BSTAR":4.2371e-5,"MEAN_MOTION_DOT":8.96e-6,"MEAN_MOTION_DDOT":0},{"OBJECT_NAME":"STARLINK-30290","OBJECT_ID":"2023-141U","EPOCH":"2025-10-23T03:44:27.517056","MEAN_MOTION":15.30175518,"ECCENTRICITY":0.00010606,"INCLINATION":53.1601,"RA_OF_ASC_NODE":202.7642,"ARG_OF_PERICENTER":73.4818,"MEAN_ANOMALY":286.6299,"EPHEMERIS_TYPE":0,"CLASSIFICATION_TYPE":"U","NORAD_CAT_ID":57858,"ELEMENT_SET_NO":999,"REV_AT_EPOCH":11927,"BSTAR":3.0903592e-5,"MEAN_MOTION_DOT":5.56e-6,"MEAN_MOTION_DDOT":0},{"OBJECT_NAME":"STARLINK-30414","OBJECT_ID":"2023-141V","EPOCH":"2025-10-23T00:31:45.596928","MEAN_MOTION":15.30210867,"ECCENTRICITY":8.956e-5,"INCLINATION":53.1616,"RA_OF_ASC_NODE":203.3504,"ARG_OF_PERICENTER":102.9485,"MEAN_ANOMALY":257.1616,"EPHEMERIS_TYPE":0,"CLASSIFICATION_TYPE":"U","NORAD_CAT_ID":57859,"ELEMENT_SET_NO":999,"REV_AT_EPOCH":11925,"BSTAR":8.6713594e-5,"MEAN_MOTION_DOT":2.211e-5,"MEAN_MOTION_DDOT":0},{"OBJECT_NAME":"STARLINK-30272","OBJECT_ID":"2023-141W","EPOCH":"2025-10-23T10:24:57.536064","MEAN_MOTION":15.30198068,"ECCENTRICITY":0.000144,"INCLINATION":53.161,"RA_OF_ASC_NODE":201.6526,"ARG_OF_PERICENTER":71.7048,"MEAN_ANOMALY":288.4109,"EPHEMERIS_TYPE":0,"CLASSIFICATION_TYPE":"U","NORAD_CAT_ID":57860,"ELEMENT_SET_NO":999,"REV_AT_EPOCH":11931,"BSTAR":6.521e-5,"MEAN_MOTION_DOT":1.572e-5,"MEAN_MOTION_DDOT":0},{"OBJECT_NAME":"STARLINK-30432","OBJECT_ID":"2023-144A","EPOCH":"2025-10-23T07:59:41.203392","MEAN_MOTION":15.02534592,"ECCENTRICITY":6.03e-5,"INCLINATION":43.0027,"RA_OF_ASC_NODE":314.2655,"ARG_OF_PERICENTER":277.5129,"MEAN_ANOMALY":82.5645,"EPHEMERIS_TYPE":0,"CLASSIFICATION_TYPE":"U","NORAD_CAT_ID":57864,"ELEMENT_SET_NO":999,"REV_AT_EPOCH":11690,"BSTAR":5.5492e-5,"MEAN_MOTION_DOT":5.46e-6,"MEAN_MOTION_DDOT":0}]
