STARLINK-30292          
1 57844U 23141E   25296.46450931 -.00003404  00000+0 -10298-3 0  9990
2 57844  53.1610 201.1438 0001145  79.4196 280.6934 15.30166269119329
STARLINK-30416          
1 57847U 23141H   25296.44349008  .00002510  00000+0  96826-4 0  9990
2 57847  53.1603 201.6747 0001084  66.0273 294.0841 15.30207487119315
STARLINK-30426          
1 57848U 23141J   25296.46035906  .00000586  00000+0  31932-4 0  9990
2 57848  53.1618 201.5769 0001286  79.2833 280.8313 15.30180407119316
STARLINK-30430          
1 57849U 23141K   25296.44033026 -.00001043  00000+0 -23079-4 0  9994
2 57849  53.1588 201.6975 0001003 144.4874 215.6194 15.30207278119319
STARLINK-30425          
1 57850U 23141L   25296.46351076  .00002807  00000+0  10687-3 0  9993
2 57850  53.1610 201.6020 0001380  87.6463 272.4696 15.30196648119314
STARLINK-30405          
1 57851U 23141M   25296.18540225 -.00001449  00000+0 -36821-4 0  9991
2 57851  53.1596 202.8943 0000835 103.6870 256.4224 15.30201147119275
STARLINK-30431          
1 57852U 23141N   25296.46977383  .00004149  00000+0  15221-3 0  9990
2 57852  53.1611 201.1725 0001373  79.8574 280.2582 15.30179936119314
STARLINK-30404          
1 57853U 23141P   25296.00835299 -.00000343  00000+0  56371-6 0  9997
2 57853  53.1612 203.2673 0001499  95.7613 264.3559 15.30178271119252
STARLINK-30392          
1 57855U 23141R   25296.47293712 -.00000158  00000+0  67986-5 0  9995
2 57855  53.1600 201.1891 0001151  70.0198 290.0927 15.30193919119328
STARLINK-30291          
1 57856U 23141S   25296.03894022  .00001778  00000+0  72118-4 0  9999
2 57856  53.1579 203.4537 0000436 315.1178  44.9787 15.30200841119257
STARLINK-30424          
1 57857U 23141T   25296.62772093  .00000896  00000+0  42371-4 0  9996
2 57857  53.1596 174.7619 0001215  76.2349 283.8787 15.30198415119706
STARLINK-30290          
1 57858U 23141U   25296.15587404  .00000556  00000+0  30904-4 0  9997
2 57858  53.1601 202.7642 0001060  73.4818 286.6299 15.30175518119270
STARLINK-30414          
1 57859U 23141V   25296.02205552  .00002211  00000+0  86714-4 0  9995
2 57859  53.1616 203.3504 0000895 102.9485 257.1616 15.30210867119255
STARLINK-30272          
1 57860U 23141W   25296.43399926  .00001572  00000+0  65210-4 0  9998
2 57860  53.1610 201.6526 0001439  71.7048 288.4109 15.30198068119318
STARLINK-30432          
1 57864U 23144A   25296.33311578  .00000546  00000+0  55492-4 0  9992
2 57864  43.0027 314.2655 0000603 277.5129  82.5645 15.02534592116909
